SHIJIAN-29A (SJ-29A)    
1 67302U 25315A   26087.91581832 -.00000085  00000+0  00000+0 0  9996
2 67302   3.1941  97.1279 0002431 311.6495 180.4480  1.00273610   816
