{
  "norad_id": 67302,
  "name": "SHIJIAN-29A (SJ-29A)",
  "history": [
    {
      "epoch": "2026-03-28T21:58:46.702848Z",
      "apogee_km": 35796.33432045358,
      "perigee_km": 35775.83238994807,
      "latitude_deg": 2.3867161768238896,
      "longitude_deg": 73.26491513411355,
      "height_km": 35795.54957801287,
      "semi_major_axis_km": 42164.22035520083,
      "eccentricity": 0.00024312,
      "inclination_deg": 3.1941,
      "raan_deg": 97.1279,
      "arg_perigee_deg": 311.6495,
      "mean_anomaly_deg": 180.448,
      "mean_motion_rev_day": 1.0027361
    }
  ]
}